LYNK TOWER 6            
1 59123U 24043AB  26068.89488777  .00011440  00000+0  40142-3 0  9996
2 59123  97.5426 204.1954 0009749 232.0253 128.0107 15.29548678111845
STARLINK-35790          
1 67055U 25294AB  26068.27412335  .00024380  00000+0  89207-3 0  9999
2 67055  43.0018  40.5866 0001093 244.0498 116.0241 15.27597489 14731
